MALLIGYONG-1            
1 58400U 23179A   23338.63941232  .00007341  00000+0  32977-3 0  9993
2 58400  97.4264 223.2451 0014388 229.3727 130.6258 15.21358919  1983
